[{"id":2655,"name_en":"Abaga","name_fr":"abaga","name_es":"abaga","ctry":"Papua New Guinea","ctry_codesalpha3":"PNG","iso_code":"abg","degree_danger":"Critically endangered"},{"id":2264,"name_en":"Abai Sungai","name_fr":"abai sungai","name_es":"abai sungai","ctry":"Malaysia","ctry_codesalpha3":"MYS","iso_code":"abf","degree_danger":"Definitely endangered"},{"id":2580,"name_en":"Adabe","name_fr":"adabe","name_es":"adabe","ctry":"Timor-Leste","ctry_codesalpha3":"TLS","iso_code":"adb","degree_danger":"Vulnerable"},{"id":2098,"name_en":"Ainbai","name_fr":"ainba","name_es":"ainbai","ctry":"Papua New Guinea","ctry_codesalpha3":"PNG","iso_code":"aic","degree_danger":"Severely endangered"},{"id":2105,"name_en":"Ak","name_fr":"ak","name_es":"ak","ctry":"Papua New Guinea","ctry_codesalpha3":"PNG","iso_code":"akq","degree_danger":"Severely endangered"},{"id":2212,"name_en":"Alabat Island Agta","name_fr":"agta de l'Ã®le d'Alabat","name_es":"agta de la isla Alabat","ctry":"Philippines","ctry_codesalpha3":"PHL","iso_code":"dul","degree_danger":"Critically endangered"},{"id":2327,"name_en":"Alune","name_fr":"alune","name_es":"alune","ctry":"Indonesia","ctry_codesalpha3":"IDN","iso_code":"alp","degree_danger":"Vulnerable"},{"id":2328,"name_en":"Amahai","name_fr":"amahai","name_es":"amahai","ctry":"Indonesia","ctry_codesalpha3":"IDN","iso_code":"amq","degree_danger":"Critically endangered"},{"id":2638,"name_en":"Amblong","name_fr":"amblong","name_es":"amblong","ctry":"Vanuatu","ctry_codesalpha3":"VUT","iso_code":"alm","degree_danger":"Definitely endangered"},{"id":2271,"name_en":"Ampibabo Lauje","name_fr":"ampibabo-lauje","name_es":"lauje","ctry":"Indonesia","ctry_codesalpha3":"IDN","iso_code":"law","degree_danger":"Vulnerable"},{"id":2272,"name_en":"Andio","name_fr":"andio","name_es":"andio","ctry":"Indonesia","ctry_codesalpha3":"IDN","iso_code":"bzb","degree_danger":"Vulnerable"},{"id":2656,"name_en":"Anuki","name_fr":"anuki","name_es":"anuki","ctry":"Papua New Guinea","ctry_codesalpha3":"PNG","iso_code":"aui","degree_danger":"Definitely endangered"},{"id":1886,"name_en":"Anus","name_fr":"anus","name_es":"sobei","ctry":"Indonesia","ctry_codesalpha3":"IDN","iso_code":"auq","degree_danger":"Severely endangered"},{"id":2141,"name_en":"Aore","name_fr":"aore","name_es":"aore","ctry":"Vanuatu","ctry_codesalpha3":"VUT","iso_code":"aor","degree_danger":"Extinct"},{"id":2329,"name_en":"Aputai","name_fr":"aputai","name_es":"aputai","ctry":"Indonesia","ctry_codesalpha3":"IDN","iso_code":"apx","degree_danger":"Critically endangered"},{"id":2515,"name_en":"Araki","name_fr":"araki","name_es":"araki","ctry":"Vanuatu","ctry_codesalpha3":"VUT","iso_code":"akr","degree_danger":"Critically endangered"},{"id":2101,"name_en":"Arawun","name_fr":"arawum","name_es":"arawum","ctry":"Papua New Guinea","ctry_codesalpha3":"PNG","iso_code":"awm","degree_danger":"Severely endangered"},{"id":1887,"name_en":"Arguni","name_fr":"arguni","name_es":"arguni","ctry":"Indonesia","ctry_codesalpha3":"IDN","iso_code":"agf","degree_danger":"Vulnerable"},{"id":2159,"name_en":"Arha","name_fr":"arha","name_es":"ara","ctry":"New Caledonia (France)","ctry_codesalpha3":"NCL","iso_code":"aqr","degree_danger":"Critically endangered"},{"id":2160,"name_en":"Arho","name_fr":"arho","name_es":"aro","ctry":"New Caledonia (France)","ctry_codesalpha3":"NCL","iso_code":"aok","degree_danger":"Critically endangered"},{"id":2099,"name_en":"Ari","name_fr":"ari","name_es":"ari","ctry":"Papua New Guinea","ctry_codesalpha3":"PNG","iso_code":"aac","degree_danger":"Severely endangered"},{"id":2658,"name_en":"Aribwatsa","name_fr":"aribwatsa","name_es":"aribuacha","ctry":"Papua New Guinea","ctry_codesalpha3":"PNG","iso_code":"laz","degree_danger":"Extinct"},{"id":2170,"name_en":"Arta","name_fr":"arta","name_es":"arta","ctry":"Philippines","ctry_codesalpha3":"PHL","iso_code":"atz","degree_danger":"Extinct"},{"id":1888,"name_en":"As","name_fr":"as","name_es":"as","ctry":"Indonesia","ctry_codesalpha3":"IDN","iso_code":"asz","degree_danger":"Vulnerable"},{"id":2136,"name_en":"Asumboa","name_fr":"asumboa","name_es":"asumbuo","ctry":"Solomon Islands","ctry_codesalpha3":"SLB","iso_code":"aua","degree_danger":"Severely endangered"},{"id":2167,"name_en":"Ata","name_fr":"ata","name_es":"ata","ctry":"Philippines","ctry_codesalpha3":"PHL","iso_code":"atm","degree_danger":"Extinct"},{"id":2659,"name_en":"Atemble","name_fr":"atemble","name_es":"atemble","ctry":"Papua New Guinea","ctry_codesalpha3":"PNG","iso_code":"ate","degree_danger":"Definitely endangered"},{"id":2488,"name_en":"Auye","name_fr":"auye","name_es":"auye","ctry":"Indonesia","ctry_codesalpha3":"IDN","iso_code":"auu","degree_danger":"Vulnerable"},{"id":2142,"name_en":"Aveteian","name_fr":"aveteian","name_es":"aveteian","ctry":"Vanuatu","ctry_codesalpha3":"VUT","degree_danger":"Critically endangered"},{"id":2518,"name_en":"Awera","name_fr":"awera","name_es":"awera","ctry":"Indonesia","ctry_codesalpha3":"IDN","iso_code":"awr","degree_danger":"Vulnerable"},{"id":2519,"name_en":"Awyi","name_fr":"awyi","name_es":"aviÃº","ctry":"Indonesia","ctry_codesalpha3":"IDN","iso_code":"auw","degree_danger":"Vulnerable"},{"id":2660,"name_en":"Bagupi","name_fr":"bagupi","name_es":"bagupi","ctry":"Papua New Guinea","ctry_codesalpha3":"PNG","iso_code":"bpi","degree_danger":"Definitely endangered"},{"id":2273,"name_en":"Bahonsuai","name_fr":"bahonsuai","name_es":"bahonsuÃ¡i","ctry":"Indonesia","ctry_codesalpha3":"IDN","iso_code":"bsu","degree_danger":"Definitely endangered"},{"id":2639,"name_en":"Baki","name_fr":"baki","name_es":"baki","ctry":"Vanuatu","ctry_codesalpha3":"VUT","iso_code":"bki","degree_danger":"Vulnerable"},{"id":2274,"name_en":"Baleasang","name_fr":"baleasang","name_es":"balaesano","ctry":"Indonesia","ctry_codesalpha3":"IDN","iso_code":"bls","degree_danger":"Definitely endangered"},{"id":2143,"name_en":"Bangsa","name_fr":"bangsa","name_es":"Bangsa","ctry":"Vanuatu","ctry_codesalpha3":"VUT","degree_danger":"Critically endangered"},{"id":2275,"name_en":"Baras","name_fr":"baras","name_es":"baras","ctry":"Indonesia","ctry_codesalpha3":"IDN","iso_code":"brs","degree_danger":"Severely endangered"},{"id":2169,"name_en":"Bataan Ayta","name_fr":"ayta du Bataan","name_es":"ayta de Bataan","ctry":"Philippines","ctry_codesalpha3":"PHL","iso_code":"ayt","degree_danger":"Definitely endangered"},{"id":2166,"name_en":"Batak","name_fr":"batak","name_es":"bataco","ctry":"Philippines","ctry_codesalpha3":"PHL","iso_code":"bya","degree_danger":"Definitely endangered"},{"id":2288,"name_en":"Batek","name_fr":"batek","name_es":"batek","ctry":"Malaysia","ctry_codesalpha3":"MYS","iso_code":"btq","degree_danger":"Critically endangered"},{"id":2520,"name_en":"Bedoanas","name_fr":"bedoanas","name_es":"bedoanas","ctry":"Indonesia","ctry_codesalpha3":"IDN","iso_code":"bed","degree_danger":"Vulnerable"},{"id":2330,"name_en":"Benggoi","name_fr":"benggoi","name_es":"benggoi","ctry":"Indonesia","ctry_codesalpha3":"IDN","iso_code":"bgy","degree_danger":"Definitely endangered"},{"id":2107,"name_en":"Bepour","name_fr":"bepour","name_es":"bepour","ctry":"Papua New Guinea","ctry_codesalpha3":"PNG","iso_code":"bie","degree_danger":"Severely endangered"},{"id":2276,"name_en":"Besoa","name_fr":"behoa","name_es":"bada","ctry":"Indonesia","ctry_codesalpha3":"IDN","iso_code":"bep","degree_danger":"Vulnerable"},{"id":2525,"name_en":"Biak","name_fr":"biak","name_es":"biaco","ctry":"Indonesia","ctry_codesalpha3":"IDN","iso_code":"bhw","degree_danger":"Vulnerable"},{"id":2640,"name_en":"Bierebo","name_fr":"bierebo","name_es":"bierebo","ctry":"Vanuatu","ctry_codesalpha3":"VUT","iso_code":"bnk","degree_danger":"Vulnerable"},{"id":2140,"name_en":"Bieria","name_fr":"bieria","name_es":"bieria","ctry":"Vanuatu","ctry_codesalpha3":"VUT","iso_code":"brj","degree_danger":"Critically endangered"},{"id":2096,"name_en":"Bikaru","name_fr":"bikaru","name_es":"bikaru","ctry":"Papua New Guinea","ctry_codesalpha3":"PNG","iso_code":"bic","degree_danger":"Severely endangered"},{"id":2097,"name_en":"Bilakura","name_fr":"bilakura","name_es":"bilakura","ctry":"Papua New Guinea","ctry_codesalpha3":"PNG","iso_code":"bql","degree_danger":"Critically endangered"},{"id":2661,"name_en":"Bina","name_fr":"bina","name_es":"bina","ctry":"Papua New Guinea","ctry_codesalpha3":"PNG","iso_code":"bmn","degree_danger":"Extinct"},{"id":2628,"name_en":"Blablanga","name_fr":"blablanga","name_es":"blablanga","ctry":"Solomon Islands","ctry_codesalpha3":"SLB","iso_code":"blp","degree_danger":"Definitely endangered"},{"id":2277,"name_en":"Boano","name_fr":"boano","name_es":"boano","ctry":"Indonesia","ctry_codesalpha3":"IDN","iso_code":"bzl","degree_danger":"Vulnerable"},{"id":2521,"name_en":"Bonerif","name_fr":"bonerif","name_es":"bonerif","ctry":"Indonesia","ctry_codesalpha3":"IDN","iso_code":"bnv","degree_danger":"Critically endangered"},{"id":2522,"name_en":"Bonggo","name_fr":"bonggo","name_es":"bonggo","ctry":"Indonesia","ctry_codesalpha3":"IDN","iso_code":"bpg","degree_danger":"Severely endangered"},{"id":2662,"name_en":"Bosilewa","name_fr":"bosilewa","name_es":"bosilewa","ctry":"Papua New Guinea","ctry_codesalpha3":"PNG","iso_code":"bwf","degree_danger":"Vulnerable"},{"id":2663,"name_en":"Bothar","name_fr":"bothar","name_es":"bothar","ctry":"Papua New Guinea","ctry_codesalpha3":"PNG","iso_code":"bow","degree_danger":"Severely endangered"},{"id":2664,"name_en":"Budibud","name_fr":"budibud","name_es":"budibud","ctry":"Papua New Guinea","ctry_codesalpha3":"PNG","iso_code":"btp","degree_danger":"Vulnerable"},{"id":2278,"name_en":"Budong-Budong","name_fr":"budong-budong","name_es":"budÃ³n-budÃ³n","ctry":"Indonesia","ctry_codesalpha3":"IDN","iso_code":"bdx","degree_danger":"Critically endangered"},{"id":2665,"name_en":"Bukiyip","name_fr":"bukiyip","name_es":"arapeso montaÃ±Ã©s","ctry":"Papua New Guinea","ctry_codesalpha3":"PNG","iso_code":"ape","degree_danger":"Vulnerable"},{"id":2666,"name_en":"Bulgebi","name_fr":"bulgebi","name_es":"bulgebi","ctry":"Papua New Guinea","ctry_codesalpha3":"PNG","iso_code":"bmp","degree_danger":"Definitely endangered"},{"id":2657,"name_en":"Bumbita Arapesh","name_fr":"bumbita arapesh","name_es":"arapeso bumbita","ctry":"Papua New Guinea","ctry_codesalpha3":"PNG","iso_code":"aon","degree_danger":"Vulnerable"},{"id":2523,"name_en":"Burate","name_fr":"burate","name_es":"burate","ctry":"Indonesia","ctry_codesalpha3":"IDN","iso_code":"bti","degree_danger":"Severely endangered"},{"id":2615,"name_en":"Busoa","name_fr":"busoa","name_es":"busoa","ctry":"Indonesia","ctry_codesalpha3":"IDN","iso_code":"bup","degree_danger":"Vulnerable"},{"id":2490,"name_en":"Caac","name_fr":"caac","name_es":"caac","ctry":"New Caledonia (France)","ctry_codesalpha3":"NCL","iso_code":"msq","degree_danger":"Vulnerable"},{"id":2213,"name_en":"Camarines Norte Agta","name_fr":"agta de Camarines-nord","name_es":"agta de Camarines Norte","ctry":"Philippines","ctry_codesalpha3":"PHL","iso_code":"abd","degree_danger":"Severely endangered"},{"id":2214,"name_en":"Central Cagayan Agta","name_fr":"agta de Cagayan central","name_es":"agta de CagayÃ¡n central","ctry":"Philippines","ctry_codesalpha3":"PHL","iso_code":"agt","degree_danger":"Vulnerable"},{"id":2290,"name_en":"Che Wong","name_fr":"che wong","name_es":"chuba","ctry":"Malaysia","ctry_codesalpha3":"MYS","iso_code":"cwg","degree_danger":"Definitely endangered"},{"id":2526,"name_en":"Dabra","name_fr":"dabra","name_es":"dabra","ctry":"Indonesia","ctry_codesalpha3":"IDN","degree_danger":"Vulnerable"},{"id":2279,"name_en":"Dakka","name_fr":"dakka","name_es":"dakka","ctry":"Indonesia","ctry_codesalpha3":"IDN","degree_danger":"Vulnerable"},{"id":2524,"name_en":"Damal","name_fr":"damal","name_es":"damal","ctry":"Indonesia","ctry_codesalpha3":"IDN","iso_code":"uhn","degree_danger":"Vulnerable"},{"id":2280,"name_en":"Dampel","name_fr":"dampal","name_es":"dampal","ctry":"Indonesia","ctry_codesalpha3":"IDN","degree_danger":"Critically endangered"},{"id":2616,"name_en":"Dampelas","name_fr":"dampelas","name_es":"dampelasa","ctry":"Indonesia","ctry_codesalpha3":"IDN","iso_code":"dms","degree_danger":"Definitely endangered"},{"id":2527,"name_en":"Demisa","name_fr":"demisa","name_es":"demisa","ctry":"Indonesia","ctry_codesalpha3":"IDN","iso_code":"dei","degree_danger":"Definitely endangered"},{"id":2667,"name_en":"Dengalu","name_fr":"dengalu","name_es":"dengalu","ctry":"Papua New Guinea","ctry_codesalpha3":"PNG","iso_code":"ptp","degree_danger":"Definitely endangered"},{"id":2201,"name_en":"Dicamay Agta","name_fr":"agta de Dicamay","name_es":"agta de Dicamay","ctry":"Philippines","ctry_codesalpha3":"PHL","iso_code":"duy","degree_danger":"Extinct"},{"id":2668,"name_en":"Doga","name_fr":"doga","name_es":"doga","ctry":"Papua New Guinea","ctry_codesalpha3":"PNG","iso_code":"dgg","degree_danger":"Definitely endangered"},{"id":2304,"name_en":"Dondo","name_fr":"dondo","name_es":"dondo","ctry":"Indonesia","ctry_codesalpha3":"IDN","iso_code":"dok","degree_danger":"Vulnerable"},{"id":2511,"name_en":"Dorig","name_fr":"dorig","name_es":"wetamut","ctry":"Vanuatu","ctry_codesalpha3":"VUT","iso_code":"wwo","degree_danger":"Definitely endangered"},{"id":2629,"name_en":"Dororo","name_fr":"dororo","name_es":"dororo","ctry":"Solomon Islands","ctry_codesalpha3":"SLB","iso_code":"drr","degree_danger":"Extinct"},{"id":2100,"name_en":"Dorro","name_fr":"dorro","name_es":"dorro","ctry":"Papua New Guinea","ctry_codesalpha3":"PNG","iso_code":"mxw","degree_danger":"Severely endangered"},{"id":2528,"name_en":"Doutai","name_fr":"doutai","name_es":"tolitai","ctry":"Indonesia","ctry_codesalpha3":"IDN","iso_code":"tds","degree_danger":"Severely endangered"},{"id":2501,"name_en":"Drubea","name_fr":"nÃ¢Ã¢ drubea","name_es":"drubea","ctry":"New Caledonia (France)","ctry_codesalpha3":"NCL","iso_code":"duf","degree_danger":"Vulnerable"},{"id":2727,"name_en":"Duano'","name_fr":"duano'","name_es":"duano'","ctry":"Malaysia","ctry_codesalpha3":"MYS","degree_danger":"Critically endangered"},{"id":2529,"name_en":"Dubu","name_fr":"dubu","name_es":"dubu","ctry":"Indonesia","ctry_codesalpha3":"IDN","iso_code":"dmu","degree_danger":"Vulnerable"},{"id":2095,"name_en":"Dumun","name_fr":"dumun","name_es":"dumun","ctry":"Papua New Guinea","ctry_codesalpha3":"PNG","iso_code":"dui","degree_danger":"Critically endangered"},{"id":2234,"name_en":"Dupaninan Agta","name_fr":"agta de Cagayan oriental","name_es":"agta de CagayÃ¡n oriental","ctry":"Philippines","ctry_codesalpha3":"PHL","iso_code":"duo","degree_danger":"Vulnerable"},{"id":2530,"name_en":"Duriankere","name_fr":"duriankere","name_es":"duriankere","ctry":"Indonesia","ctry_codesalpha3":"IDN","iso_code":"dbn","degree_danger":"Critically endangered"},{"id":2531,"name_en":"Dusner","name_fr":"dusner","name_es":"dusner","ctry":"Indonesia","ctry_codesalpha3":"IDN","iso_code":"dsn","degree_danger":"Critically endangered"},{"id":2669,"name_en":"Duwet","name_fr":"duwet","name_es":"guwot","ctry":"Papua New Guinea","ctry_codesalpha3":"PNG","iso_code":"gve","degree_danger":"Vulnerable"},{"id":2641,"name_en":"Emae","name_fr":"emae","name_es":"mae","ctry":"Vanuatu","ctry_codesalpha3":"VUT","iso_code":"mmw","degree_danger":"Vulnerable"},{"id":2332,"name_en":"Emplawas","name_fr":"emplawas","name_es":"emplavas","ctry":"Indonesia","ctry_codesalpha3":"IDN","iso_code":"emw","degree_danger":"Definitely endangered"},{"id":2269,"name_en":"Enggano","name_fr":"enggano","name_es":"enggano","ctry":"Indonesia","ctry_codesalpha3":"IDN","iso_code":"eno","degree_danger":"Vulnerable"},{"id":2532,"name_en":"Erokwanas","name_fr":"erokwanas","name_es":"erokwanas","ctry":"Indonesia","ctry_codesalpha3":"IDN","iso_code":"erw","degree_danger":"Vulnerable"},{"id":2502,"name_en":"Fagauvea (Northern)","name_fr":"fagauvea (nord)","name_es":"uveano (septentrional)","ctry":"New Caledonia (France)","ctry_codesalpha3":"NCL","iso_code":"uve","degree_danger":"Vulnerable"},{"id":2503,"name_en":"Fagauvea (Southern)","name_fr":"fagauvea (sud)","name_es":"uveano (meridional)","ctry":"New Caledonia (France)","ctry_codesalpha3":"NCL","iso_code":"uve","degree_danger":"Vulnerable"},{"id":2630,"name_en":"Faghani","name_fr":"faghani","name_es":"gani","ctry":"Solomon Islands","ctry_codesalpha3":"SLB","iso_code":"faf","degree_danger":"Vulnerable"},{"id":2168,"name_en":"Faire Atta","name_fr":"atta faire","name_es":"atta meridional","ctry":"Philippines","ctry_codesalpha3":"PHL","iso_code":"azt","degree_danger":"Severely endangered"},{"id":2102,"name_en":"Faita","name_fr":"faita","name_es":"faita","ctry":"Papua New Guinea","ctry_codesalpha3":"PNG","iso_code":"faj","degree_danger":"Severely endangered"},{"id":2533,"name_en":"Fayu","name_fr":"fayu","name_es":"fayu","ctry":"Indonesia","ctry_codesalpha3":"IDN","iso_code":"fau","degree_danger":"Vulnerable"},{"id":2534,"name_en":"Foya","name_fr":"foya","name_es":"foya","ctry":"Indonesia","ctry_codesalpha3":"IDN","degree_danger":"Critically endangered"},{"id":2493,"name_en":"FwÃ¢i","name_fr":"fwÃ¢i","name_es":"fwÃ¢i","ctry":"New Caledonia (France)","ctry_codesalpha3":"NCL","iso_code":"fwa","degree_danger":"Vulnerable"},{"id":2631,"name_en":"Gao","name_fr":"gao","name_es":"gao","ctry":"Solomon Islands","ctry_codesalpha3":"SLB","iso_code":"gga","degree_danger":"Vulnerable"},{"id":2670,"name_en":"Garuwahi","name_fr":"garuwahi","name_es":"garuvahi","ctry":"Papua New Guinea","ctry_codesalpha3":"PNG","iso_code":"grw","degree_danger":"Definitely endangered"},{"id":2333,"name_en":"Gebe","name_fr":"gebe","name_es":"gebe","ctry":"Indonesia","ctry_codesalpha3":"IDN","iso_code":"gei","degree_danger":"Vulnerable"},{"id":2671,"name_en":"Getmata","name_fr":"getmata","name_es":"getmata","ctry":"Papua New Guinea","ctry_codesalpha3":"PNG","iso_code":"get","degree_danger":"Extinct"},{"id":2590,"name_en":"Gorap","name_fr":"gorap","name_es":"gorap","ctry":"Indonesia","ctry_codesalpha3":"IDN","iso_code":"goq","degree_danger":"Definitely endangered"},{"id":2103,"name_en":"Gorovu","name_fr":"gorovu","name_es":"gorovu","ctry":"Papua New Guinea","ctry_codesalpha3":"PNG","iso_code":"grg","degree_danger":"Severely endangered"},{"id":2679,"name_en":"Grass Koiari","name_fr":"grass koiari","name_es":"coyarÃ­","ctry":"Papua New Guinea","ctry_codesalpha3":"PNG","iso_code":"kbk","degree_danger":"Vulnerable"},{"id":2632,"name_en":"Guliguli","ctry":"Solomon Islands","ctry_codesalpha3":"SLB","iso_code":"gli","degree_danger":"Extinct"},{"id":2106,"name_en":"Guranalum","name_fr":"guranalum","name_es":"guramalumo","ctry":"Papua New Guinea","ctry_codesalpha3":"PNG","degree_danger":"Critically endangered"},{"id":2584,"name_en":"Habu","name_fr":"habu","name_es":"habu","ctry":"Timor-Leste","ctry_codesalpha3":"TLS","iso_code":"hbu","degree_danger":"Vulnerable"},{"id":2581,"name_en":"Helong","name_fr":"helong","name_es":"helong","ctry":"Indonesia","ctry_codesalpha3":"IDN","iso_code":"heg","degree_danger":"Severely endangered"},{"id":2108,"name_en":"Hermit","name_fr":"hermit","name_es":"hermit","ctry":"Papua New Guinea","ctry_codesalpha3":"PNG","iso_code":"llf","degree_danger":"Critically endangered"},{"id":2504,"name_en":"Hiw","name_fr":"hiw","name_es":"hiw","ctry":"Vanuatu","ctry_codesalpha3":"VUT","iso_code":"hiw","degree_danger":"Definitely endangered"},{"id":2633,"name_en":"Hoava","name_fr":"hoava","name_es":"hoava","ctry":"Solomon Islands","ctry_codesalpha3":"SLB","iso_code":"hoa","degree_danger":"Vulnerable"},{"id":2591,"name_en":"Hoti","name_fr":"hoti","name_es":"hoti","ctry":"Indonesia","ctry_codesalpha3":"IDN","iso_code":"hti","degree_danger":"Critically endangered"},{"id":2592,"name_en":"Hukumina","name_fr":"hukumina","name_es":"hukumina","ctry":"Indonesia","ctry_codesalpha3":"IDN","iso_code":"huw","degree_danger":"Extinct"},{"id":2593,"name_en":"Hulung","name_fr":"hulung","name_es":"hulung","ctry":"Indonesia","ctry_codesalpha3":"IDN","iso_code":"huk","degree_danger":"Critically endangered"},{"id":2594,"name_en":"Ibu","name_fr":"ibu","name_es":"ibu","ctry":"Indonesia","ctry_codesalpha3":"IDN","iso_code":"ibu","degree_danger":"Critically endangered"},{"id":2642,"name_en":"Ifo","name_fr":"ifo","name_es":"ifo","ctry":"Vanuatu","ctry_codesalpha3":"VUT","iso_code":"iff","degree_danger":"Extinct"},{"id":2535,"name_en":"Iresim","name_fr":"iresim","name_es":"iresim","ctry":"Indonesia","ctry_codesalpha3":"IDN","iso_code":"ire","degree_danger":"Severely endangered"},{"id":2200,"name_en":"Isarog Agta","name_fr":"agta d'Isarog","name_es":"agta de Isarog","ctry":"Philippines","ctry_codesalpha3":"PHL","iso_code":"agk","degree_danger":"Critically endangered"},{"id":2536,"name_en":"Isirawa","name_fr":"isirawa","name_es":"isirawa","ctry":"Indonesia","ctry_codesalpha3":"IDN","iso_code":"srl","degree_danger":"Vulnerable"},{"id":1939,"name_en":"Iteri","name_fr":"iteri","name_es":"iteri","ctry":"Papua New Guinea","ctry_codesalpha3":"PNG","iso_code":"itr","degree_danger":"Severely endangered"},{"id":2537,"name_en":"Itik","name_fr":"itik","name_es":"itik","ctry":"Indonesia","ctry_codesalpha3":"IDN","iso_code":"itx","degree_danger":"Vulnerable"},{"id":2291,"name_en":"Jah Hut","name_fr":"jah hut","name_es":"jah het","ctry":"Malaysia","ctry_codesalpha3":"MYS","iso_code":"jah","degree_danger":"Severely endangered"},{"id":2469,"name_en":"Jahai","name_fr":"jahai","name_es":"yehai","ctry":"Malaysia","ctry_codesalpha3":"MYS","iso_code":"jhi","degree_danger":"Critically endangered"},{"id":2588,"name_en":"Javindo Creole","name_fr":"crÃ©ole javindo","name_es":"criollo javindo","ctry":"Indonesia","ctry_codesalpha3":"IDN","iso_code":"jvd","degree_danger":"Critically endangered"},{"id":2491,"name_en":"Jawe","name_fr":"jawe","name_es":"jawe","ctry":"New Caledonia (France)","ctry_codesalpha3":"NCL","iso_code":"jaz","degree_danger":"Vulnerable"},{"id":2334,"name_en":"Kadai","name_fr":"kadai","name_es":"kadai","ctry":"Indonesia","ctry_codesalpha3":"IDN","iso_code":"kzd","degree_danger":"Definitely endangered"},{"id":2335,"name_en":"Kaibobo","name_fr":"kaibobo","name_es":"kaibobo","ctry":"Indonesia","ctry_codesalpha3":"IDN","iso_code":"kzb","degree_danger":"Definitely endangered"},{"id":2672,"name_en":"Kaiep","name_fr":"kaiep","name_es":"kaiep","ctry":"Papua New Guinea","ctry_codesalpha3":"PNG","iso_code":"kbw","degree_danger":"Vulnerable"},{"id":2585,"name_en":"Kairui-Midiki","name_fr":"kairui-midiki","name_es":"kairui-midiki","ctry":"Timor-Leste","ctry_codesalpha3":"TLS","iso_code":"krd","degree_danger":"Vulnerable"},{"id":2582,"name_en":"Kaiy","name_fr":"kaiy","name_es":"kaiy","ctry":"Indonesia","ctry_codesalpha3":"IDN","iso_code":"tcq","degree_danger":"Vulnerable"},{"id":2673,"name_en":"Kaki Ae","name_fr":"kaki ae","name_es":"tate","ctry":"Papua New Guinea","ctry_codesalpha3":"PNG","iso_code":"tbd","degree_danger":"Vulnerable"},{"id":2109,"name_en":"Kalamo","name_fr":"kalamo","name_es":"kalamo","ctry":"Papua New Guinea","ctry_codesalpha3":"PNG","iso_code":"kkc","degree_danger":"Severely endangered"},{"id":2305,"name_en":"Kalao","name_fr":"kalao","name_es":"kalao","ctry":"Indonesia","ctry_codesalpha3":"IDN","iso_code":"kly","degree_danger":"Definitely endangered"},{"id":2595,"name_en":"Kamarian","name_fr":"kamarian","name_es":"kamarian","ctry":"Indonesia","ctry_codesalpha3":"IDN","iso_code":"kzx","degree_danger":"Critically endangered"},{"id":1940,"name_en":"Kamasa","name_fr":"kamasa","name_es":"kamasa","ctry":"Papua New Guinea","ctry_codesalpha3":"PNG","iso_code":"klp","degree_danger":"Critically endangered"},{"id":2674,"name_en":"Kandas","name_fr":"kandas","name_es":"kandas","ctry":"Papua New Guinea","ctry_codesalpha3":"PNG","iso_code":"kqw","degree_danger":"Vulnerable"},{"id":2675,"name_en":"Kaniet","name_fr":"kaniet","name_es":"kaniet","ctry":"Papua New Guinea","ctry_codesalpha3":"PNG","iso_code":"ktk","degree_danger":"Extinct"},{"id":2676,"name_en":"Kaningara","name_fr":"kaningara","name_es":"kaningra","ctry":"Papua New Guinea","ctry_codesalpha3":"PNG","iso_code":"knr","degree_danger":"Vulnerable"},{"id":2265,"name_en":"Kanowit","name_fr":"kanowit","name_es":"kanowit","ctry":"Malaysia","ctry_codesalpha3":"MYS","iso_code":"kxn","degree_danger":"Severely endangered"},{"id":2336,"name_en":"Kao","name_fr":"kao","name_es":"kao","ctry":"Indonesia","ctry_codesalpha3":"IDN","iso_code":"kax","degree_danger":"Definitely endangered"},{"id":2338,"name_en":"Kapingamarangi","name_fr":"kapingamarangi","name_es":"kapingamarangi","ctry":"Micronesia (Federated States of)","ctry_codesalpha3":"FSM","iso_code":"kpg","degree_danger":"Severely endangered"},{"id":2538,"name_en":"Kapori","name_fr":"kapauri","name_es":"kapori","ctry":"Indonesia","ctry_codesalpha3":"IDN","iso_code":"khp","degree_danger":"Critically endangered"},{"id":2677,"name_en":"Karami","name_fr":"karami","name_es":"karami","ctry":"Papua New Guinea","ctry_codesalpha3":"PNG","iso_code":"xar","degree_danger":"Extinct"},{"id":2539,"name_en":"Karas","name_fr":"karas","name_es":"karas","ctry":"Indonesia","ctry_codesalpha3":"IDN","iso_code":"kgv","degree_danger":"Severely endangered"},{"id":2678,"name_en":"Karore","name_fr":"karore","name_es":"karore","ctry":"Papua New Guinea","ctry_codesalpha3":"PNG","iso_code":"xkx","degree_danger":"Vulnerable"},{"id":2091,"name_en":"Katabaga","name_fr":"katabaga","name_es":"catabaga","ctry":"Philippines","ctry_codesalpha3":"PHL","iso_code":"ktq","degree_danger":"Extinct"},{"id":2110,"name_en":"Kawucha","name_fr":"kawacha","name_es":"kawucha","ctry":"Papua New Guinea","ctry_codesalpha3":"PNG","degree_danger":"Critically endangered"},{"id":2596,"name_en":"Kayeli","name_fr":"kayeli","name_es":"kayeli","ctry":"Indonesia","ctry_codesalpha3":"IDN","iso_code":"kzl","degree_danger":"Extinct"},{"id":2540,"name_en":"Kayupulau","name_fr":"kayupulau","name_es":"kayapulau","ctry":"Indonesia","ctry_codesalpha3":"IDN","iso_code":"kzu","degree_danger":"Critically endangered"},{"id":2634,"name_en":"Kazukuru","name_fr":"kazukuru","name_es":"kazukuru","ctry":"Solomon Islands","ctry_codesalpha3":"SLB","iso_code":"kzk","degree_danger":"Extinct"},{"id":2541,"name_en":"Keder","name_fr":"keder","name_es":"keder","ctry":"Indonesia","ctry_codesalpha3":"IDN","iso_code":"kdy","degree_danger":"Severely endangered"},{"id":2542,"name_en":"Kembra","name_fr":"kembra","name_es":"kembra","ctry":"Indonesia","ctry_codesalpha3":"IDN","iso_code":"xkw","degree_danger":"Critically endangered"},{"id":2286,"name_en":"Kenaboi","name_fr":"kenaboi","name_es":"kenaboi","ctry":"Malaysia","ctry_codesalpha3":"MYS","degree_danger":"Extinct"},{"id":2298,"name_en":"Kensiw (Malaysia)","name_fr":"kensiw (Malaisie)","name_es":"kensiu (Malasia)","ctry":"Malaysia","ctry_codesalpha3":"MYS","iso_code":"kns","degree_danger":"Critically endangered"},{"id":2297,"name_en":"Kentak","name_fr":"kentak","name_es":"kentak","ctry":"Malaysia","ctry_codesalpha3":"MYS","iso_code":"knq","degree_danger":"Critically endangered"},{"id":2306,"name_en":"Kodeoha","name_fr":"kodeoha","name_es":"kodeoha","ctry":"Indonesia","ctry_codesalpha3":"IDN","iso_code":"vko","degree_danger":"Vulnerable"},{"id":2543,"name_en":"Kofei","name_fr":"kofei","name_es":"kifei","ctry":"Indonesia","ctry_codesalpha3":"IDN","iso_code":"kpi","degree_danger":"Severely endangered"},{"id":2680,"name_en":"Koitabu","name_fr":"koitabu","name_es":"coita","ctry":"Papua New Guinea","ctry_codesalpha3":"PNG","iso_code":"kqi","degree_danger":"Vulnerable"},{"id":2635,"name_en":"Kokota","name_fr":"kokota","name_es":"kokota","ctry":"Solomon Islands","ctry_codesalpha3":"SLB","iso_code":"kkk","degree_danger":"Vulnerable"},{"id":2544,"name_en":"Koneraw","name_fr":"koneraw","name_es":"koneraw","ctry":"Indonesia","ctry_codesalpha3":"IDN","iso_code":"kdw","degree_danger":"Vulnerable"},{"id":2512,"name_en":"Koro","name_fr":"koro","name_es":"koro","ctry":"Vanuatu","ctry_codesalpha3":"VUT","iso_code":"krf","degree_danger":"Definitely endangered"},{"id":2307,"name_en":"Koroni","name_fr":"koroni","name_es":"koroni","ctry":"Indonesia","ctry_codesalpha3":"IDN","iso_code":"xkq","degree_danger":"Definitely endangered"},{"id":2111,"name_en":"Kowaki","name_fr":"kowaki","name_es":"kowaki","ctry":"Papua New Guinea","ctry_codesalpha3":"PNG","iso_code":"xss, zko","degree_danger":"Critically endangered"},{"id":2545,"name_en":"Kowiai","name_fr":"kowiai","name_es":"kowiai","ctry":"Indonesia","ctry_codesalpha3":"IDN","iso_code":"kwh","degree_danger":"Vulnerable"},{"id":2285,"name_en":"Kristang","name_fr":"kristang","name_es":"papia kristang","ctry":"Malaysia","ctry_codesalpha3":"MYS","iso_code":"mcm","degree_danger":"Severely endangered"},{"id":2489,"name_en":"Kumak","name_fr":"kumak","name_es":"kumak","ctry":"New Caledonia (France)","ctry_codesalpha3":"NCL","iso_code":"nee","degree_danger":"Vulnerable"},{"id":2681,"name_en":"Kuot","name_fr":"kuot","name_es":"kuot","ctry":"Papua New Guinea","ctry_codesalpha3":"PNG","iso_code":"kto","degree_danger":"Vulnerable"},{"id":2546,"name_en":"Kwansu","name_fr":"Kwansu","name_es":"kuansu","ctry":"Indonesia","ctry_codesalpha3":"IDN","iso_code":"kja","degree_danger":"Vulnerable"},{"id":2547,"name_en":"Kwerisa","name_fr":"Kwerisa","name_es":"kwerisa","ctry":"Indonesia","ctry_codesalpha3":"IDN","iso_code":"kkb","degree_danger":"Critically endangered"},{"id":2643,"name_en":"Labo","name_fr":"labo","name_es":"labo","ctry":"Vanuatu","ctry_codesalpha3":"VUT","iso_code":"mwi","degree_danger":"Vulnerable"},{"id":2112,"name_en":"Lae","name_fr":"lae","name_es":"lae","ctry":"Papua New Guinea","ctry_codesalpha3":"PNG","degree_danger":"Extinct"},{"id":2134,"name_en":"Laghu","name_fr":"laghu","name_es":"laghu","ctry":"Solomon Islands","ctry_codesalpha3":"SLB","iso_code":"lgb","degree_danger":"Extinct"},{"id":2308,"name_en":"Laiyolo","name_fr":"Laiyolo","name_es":"laiyolo","ctry":"Indonesia","ctry_codesalpha3":"IDN","iso_code":"lji","degree_danger":"Definitely endangered"},{"id":2514,"name_en":"Lakon","name_fr":"lakon","name_es":"lakona","ctry":"Vanuatu","ctry_codesalpha3":"VUT","iso_code":"lkn","degree_danger":"Vulnerable"},{"id":2292,"name_en":"Lanoh","name_fr":"lanoh","name_es":"lanoh","ctry":"Malaysia","ctry_codesalpha3":"MYS","iso_code":"lnh","degree_danger":"Critically endangered"},{"id":2113,"name_en":"Laua","name_fr":"laua","name_es":"laua","ctry":"Papua New Guinea","ctry_codesalpha3":"PNG","iso_code":"luf","degree_danger":"Critically endangered"},{"id":2309,"name_en":"Lauje","name_fr":"Lauje","name_es":"lauje","ctry":"Indonesia","ctry_codesalpha3":"IDN","iso_code":"law","degree_danger":"Vulnerable"},{"id":2682,"name_en":"Laxudumau","name_fr":"laxudumau","name_es":"laxudumau","ctry":"Papua New Guinea","ctry_codesalpha3":"PNG","degree_danger":"Vulnerable"},{"id":2548,"name_en":"Legenyem","name_fr":"legenyem","name_es":"legenyem","ctry":"Indonesia","ctry_codesalpha3":"IDN","iso_code":"lcc","degree_danger":"Vulnerable"},{"id":2505,"name_en":"Lehali","name_fr":"lehali","name_es":"lehali","ctry":"Vanuatu","ctry_codesalpha3":"VUT","iso_code":"tql","degree_danger":"Vulnerable"},{"id":2508,"name_en":"Lemerig","name_fr":"lemerig","name_es":"lemerig","ctry":"Vanuatu","ctry_codesalpha3":"VUT","iso_code":"vlr","degree_danger":"Critically endangered"},{"id":2310,"name_en":"Lemolang","name_fr":"lemolang","name_es":"lemolango","ctry":"Indonesia","ctry_codesalpha3":"IDN","iso_code":"ley","degree_danger":"Vulnerable"},{"id":2266,"name_en":"Lengilu","name_fr":"Lengilu","name_es":"lengilu","ctry":"Indonesia","ctry_codesalpha3":"IDN","iso_code":"lgi","degree_danger":"Critically endangered"},{"id":2549,"name_en":"Liki","name_fr":"liki","name_es":"sobei","ctry":"Indonesia","ctry_codesalpha3":"IDN","iso_code":"lio","degree_danger":"Critically endangered"},{"id":2683,"name_en":"Likum","name_fr":"likum","name_es":"likum","ctry":"Papua New Guinea","ctry_codesalpha3":"PNG","iso_code":"lib","degree_danger":"Definitely endangered"},{"id":2597,"name_en":"Liliali","name_fr":"liliali","name_es":"liliali","ctry":"Indonesia","ctry_codesalpha3":"IDN","iso_code":"kzl","degree_danger":"Extinct"},{"id":2337,"name_en":"Lisela","name_fr":"lisela","name_es":"lisela","ctry":"Indonesia","ctry_codesalpha3":"IDN","iso_code":"lcl","degree_danger":"Vulnerable"},{"id":2598,"name_en":"Lola","name_fr":"buru","name_es":"lola","ctry":"Indonesia","ctry_codesalpha3":"IDN","iso_code":"lcd","degree_danger":"Vulnerable"},{"id":2311,"name_en":"Lolak","name_fr":"lolak","name_es":"lolak","ctry":"Indonesia","ctry_codesalpha3":"IDN","iso_code":"llq","degree_danger":"Critically endangered"},{"id":2270,"name_en":"Lom","name_fr":"belom, mapor","name_es":"lom","ctry":"Indonesia","ctry_codesalpha3":"IDN","degree_danger":"Critically endangered"},{"id":2644,"name_en":"Lorediakarkar","name_fr":"lorediakarkar","name_es":"lorediakarkar","ctry":"Vanuatu","ctry_codesalpha3":"VUT","iso_code":"lnn","degree_danger":"Critically endangered"},{"id":2599,"name_en":"Loun","name_fr":"loun","name_es":"loun","ctry":"Indonesia","ctry_codesalpha3":"IDN","iso_code":"lox","degree_danger":"Critically endangered"},{"id":2506,"name_en":"LÃ¶yÃ¶p","name_fr":"lÃ¶yÃ¶p","name_es":"lÃ¶yÃ¶p","ctry":"Vanuatu","ctry_codesalpha3":"VUT","iso_code":"urr","degree_danger":"Vulnerable"},{"id":2645,"name_en":"Mafea","name_fr":"mafea","name_es":"mafea","ctry":"Vanuatu","ctry_codesalpha3":"VUT","iso_code":"mkv","degree_danger":"Definitely endangered"},{"id":2684,"name_en":"Magori","name_fr":"magori","name_es":"magori","ctry":"Papua New Guinea","ctry_codesalpha3":"PNG","iso_code":"zgr","degree_danger":"Vulnerable"},{"id":2289,"name_en":"Mah Meri","name_fr":"mah meri","name_es":"besisi","ctry":"Malaysia","ctry_codesalpha3":"MYS","iso_code":"mhe","degree_danger":"Severely endangered"},{"id":2685,"name_en":"Mahigi","name_fr":"mahigi","name_es":"mahigi","ctry":"Papua New Guinea","ctry_codesalpha3":"PNG","degree_danger":"Extinct"},{"id":2114,"name_en":"Makolkol","name_fr":"makolkol","name_es":"makolkol","ctry":"Papua New Guinea","ctry_codesalpha3":"PNG","iso_code":"zmh","degree_danger":"Critically endangered"},{"id":2583,"name_en":"Maku'a","name_fr":"maku'a","name_es":"maku'a","ctry":"Timor-Leste","ctry_codesalpha3":"TLS","iso_code":"lva","degree_danger":"Critically endangered"},{"id":2646,"name_en":"Malmariv","name_fr":"malmariv","name_es":"malmariv","ctry":"Vanuatu","ctry_codesalpha3":"VUT","iso_code":"mnl","degree_danger":"Vulnerable"},{"id":2550,"name_en":"Mander","name_fr":"mander","name_es":"mander","ctry":"Indonesia","ctry_codesalpha3":"IDN","iso_code":"mqr","degree_danger":"Critically endangered"},{"id":709,"name_en":"Manihiki","name_fr":"manihiki","name_es":"manihiki-rakahanga","ctry":"Cook Islands","ctry_codesalpha3":"COK","iso_code":"rkh","degree_danger":"Definitely endangered"},{"id":2551,"name_en":"Mansim","name_fr":"mansim","name_es":"borai","ctry":"Indonesia","ctry_codesalpha3":"IDN","iso_code":"had","degree_danger":"Critically endangered"},{"id":2552,"name_en":"Mapia","name_fr":"mapia","name_es":"mapia","ctry":"Indonesia","ctry_codesalpha3":"IDN","iso_code":"mpy","degree_danger":"Extinct"},{"id":2647,"name_en":"Maragus","name_fr":"maragus","name_es":"maragus","ctry":"Vanuatu","ctry_codesalpha3":"VUT","iso_code":"mrs","degree_danger":"Extinct"},{"id":2553,"name_en":"Maremgi","name_fr":"maremgi","name_es":"maremgi","ctry":"Indonesia","ctry_codesalpha3":"IDN","iso_code":"mrx","degree_danger":"Definitely endangered"},{"id":2686,"name_en":"Mari","name_fr":"mari","name_es":"mari","ctry":"Papua New Guinea","ctry_codesalpha3":"PNG","iso_code":"mbx","degree_danger":"Severely endangered"},{"id":2554,"name_en":"Massep","name_fr":"massep","name_es":"masepo","ctry":"Indonesia","ctry_codesalpha3":"IDN","iso_code":"mvs","degree_danger":"Critically endangered"},{"id":2144,"name_en":"Matanvat","name_fr":"matanvat","name_es":"matanvat","ctry":"Vanuatu","ctry_codesalpha3":"VUT","degree_danger":"Critically endangered"},{"id":2115,"name_en":"Mawak","name_fr":"mawak","name_es":"mawak","ctry":"Papua New Guinea","ctry_codesalpha3":"PNG","iso_code":"mjj","degree_danger":"Critically endangered"},{"id":2468,"name_en":"Menri'","name_fr":"menri'","name_es":"menri'","ctry":"Malaysia","ctry_codesalpha3":"MYS","iso_code":"mnq","degree_danger":"Critically endangered"},{"id":2116,"name_en":"Mindiri","name_fr":"mindiri","name_es":"mindiri","ctry":"Papua New Guinea","ctry_codesalpha3":"PNG","iso_code":"mpn","degree_danger":"Severely endangered"},{"id":2117,"name_en":"Moere","name_fr":"moere","name_es":"moere","ctry":"Papua New Guinea","ctry_codesalpha3":"PNG","iso_code":"mvq","degree_danger":"Severely endangered"},{"id":2340,"name_en":"Mokilese","name_fr":"mokil","name_es":"moquilÃ©s","ctry":"Micronesia (Federated States of)","ctry_codesalpha3":"FSM","iso_code":"mkj","degree_danger":"Critically endangered"},{"id":2600,"name_en":"Moksela","name_fr":"moksela","name_es":"moksela","ctry":"Indonesia","ctry_codesalpha3":"IDN","iso_code":"vms","degree_danger":"Extinct"},{"id":2555,"name_en":"Momuna","name_fr":"momuna","name_es":"momuna","ctry":"Indonesia","ctry_codesalpha3":"IDN","iso_code":"mqf","degree_danger":"Vulnerable"},{"id":2556,"name_en":"Mor","name_fr":"mor","name_es":"mor","ctry":"Indonesia","ctry_codesalpha3":"IDN","iso_code":"moq","degree_danger":"Severely endangered"},{"id":2557,"name_en":"Moraori","name_fr":"moraori","name_es":"moraori","ctry":"Indonesia","ctry_codesalpha3":"IDN","iso_code":"mok","degree_danger":"Severely endangered"},{"id":2145,"name_en":"Mores","name_fr":"mores","name_es":"morÃ©s","ctry":"Vanuatu","ctry_codesalpha3":"VUT","iso_code":"rga","degree_danger":"Severely endangered"},{"id":2341,"name_en":"Mortlockese","name_fr":"mortlock","name_es":"mortlock","ctry":"Micronesia (Federated States of)","ctry_codesalpha3":"FSM","iso_code":"mrl","degree_danger":"Definitely endangered"},{"id":2118,"name_en":"Mosimo","name_fr":"mosimo","name_es":"mosimo","ctry":"Papua New Guinea","ctry_codesalpha3":"PNG","iso_code":"mqv","degree_danger":"Severely endangered"},{"id":2199,"name_en":"Mt. Iraya Agta","name_fr":"agta du Mont Iraya","name_es":"agta del Monte Iraya","ctry":"Philippines","ctry_codesalpha3":"PHL","iso_code":"atl","degree_danger":"Definitely endangered"},{"id":2687,"name_en":"Mulaha","name_fr":"mulaha","name_es":"mulaha","ctry":"Papua New Guinea","ctry_codesalpha3":"PNG","iso_code":"mfw","degree_danger":"Extinct"},{"id":2688,"name_en":"Murik","name_fr":"murik","name_es":"mÃºrico","ctry":"Papua New Guinea","ctry_codesalpha3":"PNG","iso_code":"mtf","degree_danger":"Vulnerable"},{"id":2119,"name_en":"Musan","name_fr":"musan","name_es":"musan","ctry":"Papua New Guinea","ctry_codesalpha3":"PNG","iso_code":"mmp","degree_danger":"Severely endangered"},{"id":2689,"name_en":"Musom","name_fr":"musom","name_es":"musom","ctry":"Papua New Guinea","ctry_codesalpha3":"PNG","iso_code":"msu","degree_danger":"Definitely endangered"},{"id":2690,"name_en":"Mussau-Emira","name_fr":"mussau-emira","name_es":"emira","ctry":"Papua New Guinea","ctry_codesalpha3":"PNG","iso_code":"emi","degree_danger":"Definitely endangered"},{"id":2691,"name_en":"Mwatebu","name_fr":"mwatebu","name_es":"mwatebu","ctry":"Papua New Guinea","ctry_codesalpha3":"PNG","iso_code":"mwa","degree_danger":"Definitely endangered"},{"id":2510,"name_en":"Mwesen","name_fr":"mwesen","name_es":"mosina","ctry":"Vanuatu","ctry_codesalpha3":"VUT","iso_code":"msn","degree_danger":"Critically endangered"},{"id":2148,"name_en":"Naati","name_fr":"naati","name_es":"naati","ctry":"Vanuatu","ctry_codesalpha3":"VUT","degree_danger":"Critically endangered"},{"id":2692,"name_en":"Nafi","name_fr":"nafi","name_es":"nafi","ctry":"Papua New Guinea","ctry_codesalpha3":"PNG","iso_code":"srf","degree_danger":"Severely endangered"},{"id":2601,"name_en":"Naka'ela","name_fr":"naka'ela","name_es":"naka'ela","ctry":"Indonesia","ctry_codesalpha3":"IDN","iso_code":"nae","degree_danger":"Extinct"},{"id":2146,"name_en":"Naman","name_fr":"naman","name_es":"naman","ctry":"Vanuatu","ctry_codesalpha3":"VUT","iso_code":"lzl","degree_danger":"Critically endangered"},{"id":2342,"name_en":"Namonuito","name_fr":"namonuito","name_es":"namonuito","ctry":"Micronesia (Federated States of)","ctry_codesalpha3":"FSM","iso_code":"nmt","degree_danger":"Severely endangered"},{"id":2312,"name_en":"Napu","name_fr":"napu","name_es":"napu","ctry":"Indonesia","ctry_codesalpha3":"IDN","iso_code":"npy","degree_danger":"Vulnerable"},{"id":2558,"name_en":"Narau","name_fr":"narau","name_es":"narÃ¡u","ctry":"Indonesia","ctry_codesalpha3":"IDN","iso_code":"nxu","degree_danger":"Severely endangered"},{"id":2147,"name_en":"Nasarian","name_fr":"nasarian","name_es":"nasariano","ctry":"Vanuatu","ctry_codesalpha3":"VUT","iso_code":"nvh","degree_danger":"Critically endangered"},{"id":2586,"name_en":"Naueti","name_fr":"naueti","name_es":"naueti","ctry":"Timor-Leste","ctry_codesalpha3":"TLS","iso_code":"nxa","degree_danger":"Vulnerable"},{"id":2693,"name_en":"Nauna","name_fr":"nauna","name_es":"nauna","ctry":"Papua New Guinea","ctry_codesalpha3":"PNG","iso_code":"ncn","degree_danger":"Vulnerable"},{"id":2149,"name_en":"Navwien","name_fr":"navwien","name_es":"navwien","ctry":"Vanuatu","ctry_codesalpha3":"VUT","degree_danger":"Critically endangered"},{"id":2498,"name_en":"Neku","name_fr":"neku","name_es":"neku","ctry":"New Caledonia (France)","ctry_codesalpha3":"NCL","iso_code":"nek","degree_danger":"Severely endangered"},{"id":2492,"name_en":"Nemi","name_fr":"nemi","name_es":"nemi","ctry":"New Caledonia (France)","ctry_codesalpha3":"NCL","iso_code":"nem","degree_danger":"Definitely endangered"},{"id":2625,"name_en":"Ngatikese Men's Creole","name_fr":"crÃ©ole de Ngatik","name_es":"ngatik","ctry":"Micronesia (Federated States of)","ctry_codesalpha3":"FSM","degree_danger":"Definitely endangered"},{"id":2603,"name_en":"Nila (Nila Island)","name_fr":"nila (Ã®le de Nila)","name_es":"nila (isla Nila)","ctry":"Indonesia","ctry_codesalpha3":"IDN","iso_code":"nil","degree_danger":"Extinct"},{"id":2602,"name_en":"Nila (Seram Island)","name_fr":"nila (Ã®le de Seram)","name_es":"nila (isla Seram)","ctry":"Indonesia","ctry_codesalpha3":"IDN","iso_code":"nil","degree_danger":"Definitely endangered"},{"id":2648,"name_en":"Nisvai","name_fr":"nisvai","name_es":"nisvai","ctry":"Vanuatu","ctry_codesalpha3":"VUT","iso_code":"psw","degree_danger":"Critically endangered"},{"id":2150,"name_en":"Nivat","name_fr":"nivat","name_es":"nivat","ctry":"Vanuatu","ctry_codesalpha3":"VUT","degree_danger":"Critically endangered"},{"id":2151,"name_en":"Niviar","name_fr":"niviar","name_es":"niviar","ctry":"Vanuatu","ctry_codesalpha3":"VUT","degree_danger":"Critically endangered"},{"id":2171,"name_en":"Northern Alta","name_fr":"alta du nord","name_es":"alta septentrional","ctry":"Philippines","ctry_codesalpha3":"PHL","iso_code":"aqn","degree_danger":"Severely endangered"},{"id":2343,"name_en":"Nukuoro","name_fr":"nukuoro","name_es":"nukuoro","ctry":"Micronesia (Federated States of)","ctry_codesalpha3":"FSM","iso_code":"nkr","degree_danger":"Definitely endangered"},{"id":2694,"name_en":"Numbani","name_fr":"numbani","name_es":"siboma","ctry":"Papua New Guinea","ctry_codesalpha3":"PNG","iso_code":"sij","degree_danger":"Vulnerable"},{"id":2604,"name_en":"Nusa Laut","name_fr":"nusa laut","name_es":"nusa laut","ctry":"Indonesia","ctry_codesalpha3":"IDN","iso_code":"nul","degree_danger":"Critically endangered"},{"id":2559,"name_en":"Obokuitai","name_fr":"obokuitai","name_es":"obokuitÃ¡i","ctry":"Indonesia","ctry_codesalpha3":"IDN","iso_code":"afz","degree_danger":"Vulnerable"},{"id":2605,"name_en":"Oirata","name_fr":"oirata","name_es":"oirata","ctry":"Indonesia","ctry_codesalpha3":"IDN","iso_code":"oia","degree_danger":"Definitely endangered"},{"id":2513,"name_en":"Olrat","name_fr":"olrat","name_es":"olrat","ctry":"Vanuatu","ctry_codesalpha3":"VUT","degree_danger":"Critically endangered"},{"id":2560,"name_en":"Onin","name_fr":"onin","name_es":"onin","ctry":"Indonesia","ctry_codesalpha3":"IDN","iso_code":"oni","degree_danger":"Vulnerable"},{"id":2695,"name_en":"Onjab","name_fr":"onjob","name_es":"onjab","ctry":"Papua New Guinea","ctry_codesalpha3":"PNG","iso_code":"onj","degree_danger":"Vulnerable"},{"id":2283,"name_en":"Orang Hulu","name_fr":"orang hulu","name_es":"yakuno","ctry":"Malaysia","ctry_codesalpha3":"MYS","iso_code":"jak","degree_danger":"Definitely endangered"},{"id":2281,"name_en":"Orang Kanaq","name_fr":"orang kanaq","name_es":"orang kanaq","ctry":"Malaysia","ctry_codesalpha3":"MYS","iso_code":"orn","degree_danger":"Extinct"},{"id":2282,"name_en":"Orang Seletar","name_fr":"orang seletar","name_es":"orang seletar","ctry":"Malaysia","ctry_codesalpha3":"MYS","iso_code":"ors","degree_danger":"Severely endangered"},{"id":2561,"name_en":"Ormu","name_fr":"ormu","name_es":"ormu","ctry":"Indonesia","ctry_codesalpha3":"IDN","iso_code":"orz","degree_danger":"Vulnerable"},{"id":2135,"name_en":"Oroha","name_fr":"oroha","name_es":"oroha","ctry":"Solomon Islands","ctry_codesalpha3":"SLB","iso_code":"ora","degree_danger":"Severely endangered"},{"id":2497,"name_en":"Orowe","name_fr":"Ã´rÃ´Ãª","name_es":"orowe","ctry":"New Caledonia (France)","ctry_codesalpha3":"NCL","iso_code":"bpk","degree_danger":"Definitely endangered"},{"id":2120,"name_en":"Ouma","name_fr":"ouma","name_es":"ouma","ctry":"Papua New Guinea","ctry_codesalpha3":"PNG","iso_code":"oum","degree_danger":"Critically endangered"},{"id":2344,"name_en":"Paafang","name_fr":"paafang","name_es":"pÃ¡Ã¡fango","ctry":"Micronesia (Federated States of)","ctry_codesalpha3":"FSM","iso_code":"pfa","degree_danger":"Severely endangered"},{"id":2313,"name_en":"Padoe","name_fr":"padoe","name_es":"padoe","ctry":"Indonesia","ctry_codesalpha3":"IDN","iso_code":"pdo","degree_danger":"Vulnerable"},{"id":2620,"name_en":"Palu'e","name_fr":"palu'e","name_es":"palu'e","ctry":"Indonesia","ctry_codesalpha3":"IDN","degree_danger":"Definitely endangered"},{"id":2606,"name_en":"Palumata","name_fr":"palumata","name_es":"palumata","ctry":"Indonesia","ctry_codesalpha3":"IDN","iso_code":"pmc","degree_danger":"Extinct"},{"id":2314,"name_en":"Panasuan","name_fr":"panasuan","name_es":"panasuano","ctry":"Indonesia","ctry_codesalpha3":"IDN","degree_danger":"Definitely endangered"},{"id":2696,"name_en":"Papapana","name_fr":"papapana","name_es":"papapana","ctry":"Papua New Guinea","ctry_codesalpha3":"PNG","iso_code":"ppn","degree_danger":"Definitely endangered"},{"id":2121,"name_en":"Papi","name_fr":"papi","name_es":"papi","ctry":"Papua New Guinea","ctry_codesalpha3":"PNG","iso_code":"ppe","degree_danger":"Severely endangered"},{"id":2607,"name_en":"Paulohi","name_fr":"paulohi","name_es":"solehua","ctry":"Indonesia","ctry_codesalpha3":"IDN","iso_code":"plh","degree_danger":"Critically endangered"},{"id":2562,"name_en":"Pauwi","name_fr":"pauwi","name_es":"pauwi","ctry":"Indonesia","ctry_codesalpha3":"IDN","iso_code":"yki","degree_danger":"Vulnerable"},{"id":2589,"name_en":"Peco' Creole","name_fr":"crÃ©ole pecok","name_es":"criollo petjo","ctry":"Indonesia","ctry_codesalpha3":"IDN","iso_code":"pey","degree_danger":"Critically endangered"},{"id":2315,"name_en":"Pendau","name_fr":"pendau","name_es":"pendau","ctry":"Indonesia","ctry_codesalpha3":"IDN","iso_code":"ums","degree_danger":"Vulnerable"},{"id":2623,"name_en":"Penrhyn","name_fr":"penrhyn","name_es":"penrhyn","ctry":"Cook Islands","ctry_codesalpha3":"COK","iso_code":"pnh","degree_danger":"Severely endangered"},{"id":2122,"name_en":"Piame","name_fr":"piame","name_es":"piame","ctry":"Papua New Guinea","ctry_codesalpha3":"PNG","iso_code":"pin","degree_danger":"Severely endangered"},{"id":2494,"name_en":"Pije","name_fr":"pije","name_es":"pije","ctry":"New Caledonia (France)","ctry_codesalpha3":"NCL","iso_code":"piz","degree_danger":"Severely endangered"},{"id":2345,"name_en":"Pingelapese","name_fr":"pingelap","name_es":"pingilapÃ©s","ctry":"Micronesia (Federated States of)","ctry_codesalpha3":"FSM","iso_code":"pif","degree_danger":"Severely endangered"},{"id":2608,"name_en":"Piru","name_fr":"piru","name_es":"piru","ctry":"Indonesia","ctry_codesalpha3":"IDN","iso_code":"ppr","degree_danger":"Extinct"},{"id":2697,"name_en":"Piu","name_fr":"piu","name_es":"piu","ctry":"Papua New Guinea","ctry_codesalpha3":"PNG","iso_code":"pix","degree_danger":"Definitely endangered"},{"id":2649,"name_en":"Polonomombauk","name_fr":"polonombauk","name_es":"polonombauk","ctry":"Vanuatu","ctry_codesalpha3":"VUT","iso_code":"plb","degree_danger":"Definitely endangered"},{"id":2698,"name_en":"Puari","name_fr":"puari","name_es":"puari","ctry":"Papua New Guinea","ctry_codesalpha3":"PNG","iso_code":"pux","degree_danger":"Critically endangered"},{"id":710,"name_en":"Pukapukan","name_fr":"pukapuka","name_es":"pukapukano","ctry":"Cook Islands","ctry_codesalpha3":"COK","iso_code":"pkp","degree_danger":"Definitely endangered"},{"id":2346,"name_en":"Puluwat","name_fr":"puluwat","name_es":"puluwat","ctry":"Micronesia (Federated States of)","ctry_codesalpha3":"FSM","iso_code":"puw","degree_danger":"Severely endangered"},{"id":2267,"name_en":"Punan Batu","name_fr":"punan batu","name_es":"punan batu","ctry":"Malaysia","ctry_codesalpha3":"MYS","iso_code":"pnm","degree_danger":"Critically endangered"},{"id":2495,"name_en":"PwaamÃ¨i","name_fr":"pwaamÃ¨i","name_es":"pwaamei","ctry":"New Caledonia (France)","ctry_codesalpha3":"NCL","iso_code":"pme","degree_danger":"Definitely endangered"},{"id":2158,"name_en":"Pwapwa","name_fr":"pwapwa","name_es":"pwapwa","ctry":"New Caledonia (France)","ctry_codesalpha3":"NCL","iso_code":"pop","degree_danger":"Severely endangered"},{"id":2123,"name_en":"Pyu","name_fr":"pyu","name_es":"pyu","ctry":"Indonesia","ctry_codesalpha3":"IDN","iso_code":"pby","degree_danger":"Severely endangered"},{"id":2316,"name_en":"Rahambuu","name_fr":"rahambuu","name_es":"rahambuu","ctry":"Indonesia","ctry_codesalpha3":"IDN","iso_code":"raz","degree_danger":"Vulnerable"},{"id":704,"name_en":"Rarotongan","name_fr":"rarotongien","name_es":"rarotongano","ctry":"Cook Islands","ctry_codesalpha3":"COK","iso_code":"rar","degree_danger":"Vulnerable"},{"id":2650,"name_en":"Repanbitip","name_fr":"repanbitip","name_es":"repanbitip","ctry":"Vanuatu","ctry_codesalpha3":"VUT","iso_code":"rpn","degree_danger":"Definitely endangered"},{"id":2133,"name_en":"Ririo","name_fr":"ririo","name_es":"ririo","ctry":"Solomon Islands","ctry_codesalpha3":"SLB","iso_code":"rri","degree_danger":"Critically endangered"},{"id":2609,"name_en":"Salas","name_fr":"salas","name_es":"salas gunung","ctry":"Indonesia","ctry_codesalpha3":"IDN","iso_code":"sgu","degree_danger":"Severely endangered"},{"id":2317,"name_en":"Saluan","name_fr":"saluan","name_es":"saluan","ctry":"Indonesia","ctry_codesalpha3":"IDN","iso_code":"slb","degree_danger":"Vulnerable"},{"id":2124,"name_en":"Samosa","name_fr":"samosa","name_es":"samosa","ctry":"Papua New Guinea","ctry_codesalpha3":"PNG","iso_code":"swm","degree_danger":"Severely endangered"},{"id":2610,"name_en":"Saparua","name_fr":"saparua","name_es":"saparua","ctry":"Indonesia","ctry_codesalpha3":"IDN","iso_code":"spr","degree_danger":"Definitely endangered"},{"id":2563,"name_en":"Saponi","name_fr":"saponi","name_es":"saponi","ctry":"Indonesia","ctry_codesalpha3":"IDN","iso_code":"spi","degree_danger":"Critically endangered"},{"id":2347,"name_en":"Satawal","name_fr":"satawal","name_es":"satawalÃ©s","ctry":"Micronesia (Federated States of)","ctry_codesalpha3":"FSM","iso_code":"stw","degree_danger":"Severely endangered"},{"id":2564,"name_en":"Sause","name_fr":"sause","name_es":"sause","ctry":"Indonesia","ctry_codesalpha3":"IDN","iso_code":"sao","degree_danger":"Severely endangered"},{"id":2636,"name_en":"Savo","name_fr":"savo","name_es":"savo","ctry":"Solomon Islands","ctry_codesalpha3":"SLB","iso_code":"svs","degree_danger":"Definitely endangered"},{"id":2294,"name_en":"Semai","name_fr":"semai","name_es":"semÃ¡i","ctry":"Malaysia","ctry_codesalpha3":"MYS","iso_code":"sca","degree_danger":"Severely endangered"},{"id":2295,"name_en":"Semaq Beri","name_fr":"semaq beri","name_es":"semaq beri","ctry":"Malaysia","ctry_codesalpha3":"MYS","iso_code":"szc","degree_danger":"Critically endangered"},{"id":2293,"name_en":"Semelai","name_fr":"semelai","name_es":"semelÃ¡i","ctry":"Malaysia","ctry_codesalpha3":"MYS","iso_code":"sza","degree_danger":"Severely endangered"},{"id":2125,"name_en":"Sene","name_fr":"sene","name_es":"sene","ctry":"Papua New Guinea","ctry_codesalpha3":"PNG","iso_code":"sej","degree_danger":"Critically endangered"},{"id":2565,"name_en":"Senggi","name_fr":"senggi","name_es":"senggi","ctry":"Indonesia","ctry_codesalpha3":"IDN","iso_code":"snu","degree_danger":"Vulnerable"},{"id":2701,"name_en":"Sengseng","name_fr":"sengseng","name_es":"sengseng","ctry":"Papua New Guinea","ctry_codesalpha3":"PNG","iso_code":"ssz","degree_danger":"Vulnerable"},{"id":2702,"name_en":"Sepa","name_fr":"sepa","name_es":"sepa","ctry":"Papua New Guinea","ctry_codesalpha3":"PNG","iso_code":"spe","degree_danger":"Vulnerable"},{"id":2703,"name_en":"Sera","name_fr":"sera","name_es":"sera","ctry":"Papua New Guinea","ctry_codesalpha3":"PNG","iso_code":"sry","degree_danger":"Severely endangered"},{"id":2611,"name_en":"Serili","name_fr":"serili","name_es":"serili","ctry":"Indonesia","ctry_codesalpha3":"IDN","iso_code":"sve","degree_danger":"Vulnerable"},{"id":2621,"name_en":"Seru","name_fr":"seru","name_es":"seru","ctry":"Malaysia","ctry_codesalpha3":"MYS","iso_code":"szd","degree_danger":"Extinct"},{"id":2651,"name_en":"Shark Bay","name_fr":"shark Bay","name_es":"lengua de la BahÃ­a del TiburÃ³n","ctry":"Vanuatu","ctry_codesalpha3":"VUT","iso_code":"ssv","degree_danger":"Vulnerable"},{"id":2268,"name_en":"Sian","name_fr":"sian","name_es":"sian","ctry":"Malaysia","ctry_codesalpha3":"MYS","iso_code":"spg","degree_danger":"Severely endangered"},{"id":2161,"name_en":"Sishee","name_fr":"sishee","name_es":"zire","ctry":"New Caledonia (France)","ctry_codesalpha3":"NCL","iso_code":"sih","degree_danger":"Extinct"},{"id":2699,"name_en":"Sissano","name_fr":"sissano","name_es":"sissano","ctry":"Papua New Guinea","ctry_codesalpha3":"PNG","iso_code":"sso","degree_danger":"Critically endangered"},{"id":2156,"name_en":"Ske","name_fr":"ske","name_es":"seke","ctry":"Vanuatu","ctry_codesalpha3":"VUT","degree_danger":"Severely endangered"},{"id":2566,"name_en":"Sobei","name_fr":"sobei","name_es":"sobei","ctry":"Indonesia","ctry_codesalpha3":"IDN","iso_code":"sob","degree_danger":"Definitely endangered"},{"id":2704,"name_en":"Somm","name_fr":"som","name_es":"som","ctry":"Papua New Guinea","ctry_codesalpha3":"PNG","iso_code":"smc","degree_danger":"Definitely endangered"},{"id":2152,"name_en":"Sorsorian","name_fr":"sorsorian","name_es":"sorsorian","ctry":"Vanuatu","ctry_codesalpha3":"VUT","degree_danger":"Critically endangered"},{"id":2164,"name_en":"Southern Ayta","name_fr":"ayta du sud","name_es":"ayta meridional","ctry":"Philippines","ctry_codesalpha3":"PHL","iso_code":"ays","degree_danger":"Critically endangered"},{"id":2155,"name_en":"Sowa","name_fr":"sowa","name_es":"sowa","ctry":"Vanuatu","ctry_codesalpha3":"VUT","degree_danger":"Critically endangered"},{"id":2705,"name_en":"Suarmin","name_fr":"suarmin","name_es":"suarmÃ­n","ctry":"Papua New Guinea","ctry_codesalpha3":"PNG","iso_code":"seo","degree_danger":"Definitely endangered"},{"id":2126,"name_en":"Sumariup","name_fr":"sumariup","name_es":"sumariup","ctry":"Papua New Guinea","ctry_codesalpha3":"PNG","iso_code":"siv","degree_danger":"Severely endangered"},{"id":2706,"name_en":"Susuami","name_fr":"susuami","name_es":"susuami","ctry":"Papua New Guinea","ctry_codesalpha3":"PNG","iso_code":"ssu","degree_danger":"Critically endangered"},{"id":2707,"name_en":"Taap","name_fr":"taap","name_es":"wantoat","ctry":"Papua New Guinea","ctry_codesalpha3":"PNG","iso_code":"wnc","degree_danger":"Critically endangered"},{"id":2331,"name_en":"Taba","name_fr":"taba","name_es":"taba","ctry":"Indonesia","ctry_codesalpha3":"IDN","iso_code":"mky","degree_danger":"Vulnerable"},{"id":2127,"name_en":"Taiap","name_fr":"taiap","name_es":"gapun","ctry":"Papua New Guinea","ctry_codesalpha3":"PNG","iso_code":"gpn","degree_danger":"Severely endangered"},{"id":2567,"name_en":"Taikat","name_fr":"taikat","name_es":"taikat","ctry":"Indonesia","ctry_codesalpha3":"IDN","iso_code":"aos","degree_danger":"Definitely endangered"},{"id":2318,"name_en":"Taje","name_fr":"taje","name_es":"taje","ctry":"Indonesia","ctry_codesalpha3":"IDN","iso_code":"pee","degree_danger":"Critically endangered"},{"id":2617,"name_en":"Tajio","name_fr":"tajio","name_es":"tajio","ctry":"Indonesia","ctry_codesalpha3":"IDN","iso_code":"tdj","degree_danger":"Vulnerable"},{"id":2319,"name_en":"Taloki","name_fr":"taloki","name_es":"taloki","ctry":"Indonesia","ctry_codesalpha3":"IDN","iso_code":"tlk","degree_danger":"Definitely endangered"},{"id":2320,"name_en":"Talondo","name_fr":"talondo","name_es":"talondo'","ctry":"Indonesia","ctry_codesalpha3":"IDN","iso_code":"tln","degree_danger":"Definitely endangered"},{"id":2652,"name_en":"Tambotalo","name_fr":"tambotalo","name_es":"tambotalo","ctry":"Vanuatu","ctry_codesalpha3":"VUT","iso_code":"tls","degree_danger":"Severely endangered"},{"id":2568,"name_en":"Tandia","name_fr":"tandia","name_es":"tandia","ctry":"Indonesia","ctry_codesalpha3":"IDN","iso_code":"tni","degree_danger":"Extinct"},{"id":2139,"name_en":"Tanema","name_fr":"tanema","name_es":"tanema","ctry":"Solomon Islands","ctry_codesalpha3":"SLB","iso_code":"tnw","degree_danger":"Critically endangered"},{"id":2137,"name_en":"Tanimbili","name_fr":"tanimbili","name_es":"tanimbili","ctry":"Solomon Islands","ctry_codesalpha3":"SLB","iso_code":"tbe","degree_danger":"Severely endangered"},{"id":2153,"name_en":"Tape","name_fr":"tape","name_es":"tape","ctry":"Vanuatu","ctry_codesalpha3":"VUT","degree_danger":"Critically endangered"},{"id":2569,"name_en":"Tarpia","name_fr":"tarpia","name_es":"tarpia","ctry":"Indonesia","ctry_codesalpha3":"IDN","iso_code":"suf","degree_danger":"Severely endangered"},{"id":2708,"name_en":"Taulil","name_fr":"taulil","name_es":"taulil-butam","ctry":"Papua New Guinea","ctry_codesalpha3":"PNG","iso_code":"tuh","degree_danger":"Vulnerable"},{"id":2570,"name_en":"Tause","name_fr":"tause","name_es":"tause","ctry":"Indonesia","ctry_codesalpha3":"IDN","iso_code":"tad","degree_danger":"Vulnerable"},{"id":2571,"name_en":"Taworta","name_fr":"taworta","name_es":"taworta","ctry":"Indonesia","ctry_codesalpha3":"IDN","iso_code":"tbp","degree_danger":"Vulnerable"},{"id":2613,"name_en":"Te'un (Seram Island)","name_fr":"te'un (Ã®le de Seram)","name_es":"teun (isla Seram)","ctry":"Indonesia","ctry_codesalpha3":"IDN","iso_code":"tve","degree_danger":"Definitely endangered"},{"id":2612,"name_en":"Te'un (Te'un Island)","name_fr":"te'un (Ã®le de Te'un)","name_es":"teun (isla Te'un)","ctry":"Indonesia","ctry_codesalpha3":"IDN","iso_code":"tve","degree_danger":"Extinct"},{"id":2627,"name_en":"Teanu","name_fr":"teanu","name_es":"teanu","ctry":"Solomon Islands","ctry_codesalpha3":"SLB","iso_code":"tkw","degree_danger":"Definitely endangered"},{"id":2296,"name_en":"Temiar","name_fr":"temiar","name_es":"temiar","ctry":"Malaysia","ctry_codesalpha3":"MYS","iso_code":"tea","degree_danger":"Definitely endangered"},{"id":2284,"name_en":"Temuan","name_fr":"temuan","name_es":"temuano","ctry":"Malaysia","ctry_codesalpha3":"MYS","iso_code":"tmw","degree_danger":"Severely endangered"},{"id":2128,"name_en":"Tench","name_fr":"tench","name_es":"tenis","ctry":"Papua New Guinea","ctry_codesalpha3":"PNG","iso_code":"tns","degree_danger":"Critically endangered"},{"id":2321,"name_en":"Tialo","name_fr":"tialo","name_es":"tomini","ctry":"Indonesia","ctry_codesalpha3":"IDN","iso_code":"txm","degree_danger":"Vulnerable"},{"id":2499,"name_en":"Tiri","name_fr":"tÃ®rÃ®","name_es":"tiri","ctry":"New Caledonia (France)","ctry_codesalpha3":"NCL","iso_code":"tir, meg","degree_danger":"Definitely endangered"},{"id":2618,"name_en":"Tobada'","name_fr":"tobada","name_es":"tobada'","ctry":"Indonesia","ctry_codesalpha3":"IDN","iso_code":"tdj","degree_danger":"Extinct"},{"id":2572,"name_en":"Tobati","name_fr":"tobati","name_es":"tobati","ctry":"Indonesia","ctry_codesalpha3":"IDN","iso_code":"tti","degree_danger":"Severely endangered"},{"id":2573,"name_en":"Tofanma","name_fr":"tofanma","name_es":"tofanma","ctry":"Indonesia","ctry_codesalpha3":"IDN","iso_code":"tlg","degree_danger":"Vulnerable"},{"id":2653,"name_en":"Tolomako","name_fr":"tolomako","name_es":"tolomako","ctry":"Vanuatu","ctry_codesalpha3":"VUT","iso_code":"tlm","degree_danger":"Definitely endangered"},{"id":2322,"name_en":"Tomadino","name_fr":"tomadino","name_es":"tomadino","ctry":"Indonesia","ctry_codesalpha3":"IDN","iso_code":"tdi","degree_danger":"Definitely endangered"},{"id":2323,"name_en":"Tombelala","name_fr":"tombelala","name_es":"tombelala","ctry":"Indonesia","ctry_codesalpha3":"IDN","iso_code":"ttp","degree_danger":"Vulnerable"},{"id":2619,"name_en":"ToratÃ¡n","name_fr":"ratahan","name_es":"ratahan","ctry":"Indonesia","ctry_codesalpha3":"IDN","iso_code":"rth","degree_danger":"Definitely endangered"},{"id":2324,"name_en":"Totoli","name_fr":"totoli","name_es":"tolitoli","ctry":"Indonesia","ctry_codesalpha3":"IDN","iso_code":"txe","degree_danger":"Vulnerable"},{"id":2129,"name_en":"Turaka","name_fr":"turaka","name_es":"turaka","ctry":"Papua New Guinea","ctry_codesalpha3":"PNG","iso_code":"trh","degree_danger":"Critically endangered"},{"id":2654,"name_en":"Tutuba","name_fr":"tutuba","name_es":"tutuba","ctry":"Vanuatu","ctry_codesalpha3":"VUT","iso_code":"tmi","degree_danger":"Definitely endangered"},{"id":2574,"name_en":"Uhunduni","name_fr":"uhunduni","name_es":"uhundunÃ­","ctry":"Indonesia","ctry_codesalpha3":"IDN","iso_code":"uhn","degree_danger":"Vulnerable"},{"id":2614,"name_en":"Ujir","name_fr":"ujir","name_es":"ujir","ctry":"Indonesia","ctry_codesalpha3":"IDN","iso_code":"udj","degree_danger":"Definitely endangered"},{"id":2349,"name_en":"Ulithian","name_fr":"ulithi","name_es":"ulitiano","ctry":"Micronesia (Federated States of)","ctry_codesalpha3":"FSM","iso_code":"uli","degree_danger":"Severely endangered"},{"id":2154,"name_en":"Umbrul","name_fr":"Umbrul","name_es":"Umbrul","ctry":"Vanuatu","ctry_codesalpha3":"VUT","degree_danger":"Critically endangered"},{"id":2157,"name_en":"Ura","name_fr":"ura","name_es":"ura","ctry":"Vanuatu","ctry_codesalpha3":"VUT","degree_danger":"Critically endangered"},{"id":2287,"name_en":"Urak Lawoi (Malaysia)","name_fr":"urak lawoiâ€™ (Malaisie)","name_es":"urak lawoi (Malasia)","ctry":"Malaysia","ctry_codesalpha3":"MYS","iso_code":"urk","degree_danger":"Definitely endangered"},{"id":2709,"name_en":"Uruava","name_fr":"uruava","name_es":"uruava","ctry":"Papua New Guinea","ctry_codesalpha3":"PNG","iso_code":"urv","degree_danger":"Extinct"},{"id":2575,"name_en":"Usku","name_fr":"usku","name_es":"usku","ctry":"Indonesia","ctry_codesalpha3":"IDN","iso_code":"ulf","degree_danger":"Critically endangered"},{"id":2130,"name_en":"Usu","name_fr":"usu","name_es":"usu","ctry":"Papua New Guinea","ctry_codesalpha3":"PNG","iso_code":"usu","degree_danger":"Severely endangered"},{"id":2138,"name_en":"Vano","name_fr":"vano","name_es":"vano","ctry":"Solomon Islands","ctry_codesalpha3":"SLB","iso_code":"vnk","degree_danger":"Critically endangered"},{"id":2131,"name_en":"Vehes","name_fr":"vehes","name_es":"vehes","ctry":"Papua New Guinea","ctry_codesalpha3":"PNG","iso_code":"val","degree_danger":"Severely endangered"},{"id":2509,"name_en":"Vera'a","name_fr":"vera'a","name_es":"vatrata","ctry":"Vanuatu","ctry_codesalpha3":"VUT","iso_code":"vlr","degree_danger":"Definitely endangered"},{"id":2496,"name_en":"Voh-KonÃ© dialects","name_fr":"dialectes de Voh-KonÃ©","name_es":"dialectos de Voh-KonÃ©","ctry":"New Caledonia (France)","ctry_codesalpha3":"NCL","iso_code":"bwa, aek, hvk, mrk, mkt","degree_danger":"Definitely endangered"},{"id":2507,"name_en":"Volow","name_fr":"volow","name_es":"volow","ctry":"Vanuatu","ctry_codesalpha3":"VUT","iso_code":"mlv","degree_danger":"Critically endangered"},{"id":2710,"name_en":"Wab","name_fr":"wab","name_es":"wab","ctry":"Papua New Guinea","ctry_codesalpha3":"PNG","iso_code":"wab","degree_danger":"Vulnerable"},{"id":2587,"name_en":"Waima'a","name_fr":"waima'a","name_es":"vaimaa","ctry":"Timor-Leste","ctry_codesalpha3":"TLS","iso_code":"wmh","degree_danger":"Definitely endangered"},{"id":2576,"name_en":"Wano","name_fr":"wano","name_es":"wano","ctry":"Indonesia","ctry_codesalpha3":"IDN","iso_code":"wno","degree_danger":"Definitely endangered"},{"id":2700,"name_en":"Warapu","name_fr":"warapu","name_es":"varapÃº","ctry":"Papua New Guinea","ctry_codesalpha3":"PNG","iso_code":"wra","degree_danger":"Severely endangered"},{"id":2577,"name_en":"Wari","name_fr":"wari","name_es":"wari","ctry":"Indonesia","ctry_codesalpha3":"IDN","iso_code":"wbe","degree_danger":"Definitely endangered"},{"id":2325,"name_en":"Waru","name_fr":"waru","name_es":"waru","ctry":"Indonesia","ctry_codesalpha3":"IDN","iso_code":"wru","degree_danger":"Definitely endangered"},{"id":2348,"name_en":"Woleaian","name_fr":"woleai","name_es":"woleayano","ctry":"Micronesia (Federated States of)","ctry_codesalpha3":"FSM","iso_code":"woe","degree_danger":"Severely endangered"},{"id":2578,"name_en":"Woria","name_fr":"woria","name_es":"woria","ctry":"Indonesia","ctry_codesalpha3":"IDN","iso_code":"wor","degree_danger":"Critically endangered"},{"id":2326,"name_en":"Wotu","name_fr":"wotu","name_es":"wotu","ctry":"Indonesia","ctry_codesalpha3":"IDN","iso_code":"wtw","degree_danger":"Vulnerable"},{"id":2500,"name_en":"Xaragure","name_fr":"xÃ¢rÃ¢gurÃ¨","name_es":"xaragure","ctry":"New Caledonia (France)","ctry_codesalpha3":"NCL","iso_code":"axx","degree_danger":"Vulnerable"},{"id":2132,"name_en":"Yapunda","name_fr":"yapunda","name_es":"yapunda","ctry":"Papua New Guinea","ctry_codesalpha3":"PNG","iso_code":"yev","degree_danger":"Severely endangered"},{"id":2104,"name_en":"Yarawata","name_fr":"yarawata","name_es":"yarawata","ctry":"Papua New Guinea","ctry_codesalpha3":"PNG","iso_code":"yrw","degree_danger":"Severely endangered"},{"id":2711,"name_en":"Yarawi","name_fr":"yarawi","name_es":"suena","ctry":"Papua New Guinea","ctry_codesalpha3":"PNG","iso_code":"sue","degree_danger":"Critically endangered"},{"id":2712,"name_en":"Yimas","name_fr":"yimas","name_es":"yimaso","ctry":"Papua New Guinea","ctry_codesalpha3":"PNG","iso_code":"yee","degree_danger":"Severely endangered"},{"id":2713,"name_en":"Yoba","name_fr":"yoba","name_es":"yoba","ctry":"Papua New Guinea","ctry_codesalpha3":"PNG","iso_code":"zgr","degree_danger":"Extinct"},{"id":2579,"name_en":"Yoki","name_fr":"yoki","name_es":"yoki","ctry":"Indonesia","ctry_codesalpha3":"IDN","iso_code":"wor","degree_danger":"Severely endangered"},{"id":2637,"name_en":"Zazao","name_fr":"zazao","name_es":"zazao","ctry":"Solomon Islands","ctry_codesalpha3":"SLB","iso_code":"jaj","degree_danger":"Critically endangered"}]
